CCSDS_OMM_VERS = 2.0
CREATION_DATE  = 
ORIGINATOR     = 

OBJECT_NAME    = STARLINK-36409
OBJECT_ID      = 2026-005C
CENTER_NAME    = EARTH
REF_FRAME      = TEME
TIME_SYSTEM    = UTC
MEAN_ELEMENT_THEORY = SGP/SGP4

EPOCH          = 2026-02-05T18:00:02.000160
MEAN_MOTION    = 15.45331747
ECCENTRICITY   = .00011218
INCLINATION    = 43.0003
RA_OF_ASC_NODE = 61.1037
ARG_OF_PERICENTER = 274.6454
MEAN_ANOMALY   = 318.1369

EPHEMERIS_TYPE = 0
CLASSIFICATION_TYPE = U
NORAD_CAT_ID   = 67406
ELEMENT_SET_NO = 999
REV_AT_EPOCH   = 505
BSTAR          = -.48023388E-1
MEAN_MOTION_DOT = -.2081181E-1
MEAN_MOTION_DDOT = 0

CCSDS_OMM_VERS = 2.0
CREATION_DATE  = 
ORIGINATOR     = 

OBJECT_NAME    = STARLINK-36510
OBJECT_ID      = 2026-005D
CENTER_NAME    = EARTH
REF_FRAME      = TEME
TIME_SYSTEM    = UTC
MEAN_ELEMENT_THEORY = SGP/SGP4

EPOCH          = 2026-02-05T12:18:26.553312
MEAN_MOTION    = 15.50619785
ECCENTRICITY   = .00013686
INCLINATION    = 43.0003
RA_OF_ASC_NODE = 62.4582
ARG_OF_PERICENTER = 260.0892
MEAN_ANOMALY   = 99.9814

EPHEMERIS_TYPE = 0
CLASSIFICATION_TYPE = U
NORAD_CAT_ID   = 67407
ELEMENT_SET_NO = 999
REV_AT_EPOCH   = 374
BSTAR          = .19080887E-2
MEAN_MOTION_DOT = .113396E-2
MEAN_MOTION_DDOT = 0

CCSDS_OMM_VERS = 2.0
CREATION_DATE  = 
ORIGINATOR     = 

OBJECT_NAME    = STARLINK-36509
OBJECT_ID      = 2026-005E
CENTER_NAME    = EARTH
REF_FRAME      = TEME
TIME_SYSTEM    = UTC
MEAN_ELEMENT_THEORY = SGP/SGP4

EPOCH          = 2026-02-05T12:17:56.836032
MEAN_MOTION    = 15.50613068
ECCENTRICITY   = .00013604
INCLINATION    = 42.9999
RA_OF_ASC_NODE = 62.4555
ARG_OF_PERICENTER = 256.6807
MEAN_ANOMALY   = 103.3902

EPHEMERIS_TYPE = 0
CLASSIFICATION_TYPE = U
NORAD_CAT_ID   = 67408
ELEMENT_SET_NO = 999
REV_AT_EPOCH   = 373
BSTAR          = .15140632E-2
MEAN_MOTION_DOT = .89613E-3
MEAN_MOTION_DDOT = 0

CCSDS_OMM_VERS = 2.0
CREATION_DATE  = 
ORIGINATOR     = 

OBJECT_NAME    = STARLINK-36507
OBJECT_ID      = 2026-005F
CENTER_NAME    = EARTH
REF_FRAME      = TEME
TIME_SYSTEM    = UTC
MEAN_ELEMENT_THEORY = SGP/SGP4

EPOCH          = 2026-02-05T10:44:41.727552
MEAN_MOTION    = 15.50611903
ECCENTRICITY   = .00013577
INCLINATION    = 43.0001
RA_OF_ASC_NODE = 62.8298
ARG_OF_PERICENTER = 267.0774
MEAN_ANOMALY   = 92.9930

EPHEMERIS_TYPE = 0
CLASSIFICATION_TYPE = U
NORAD_CAT_ID   = 67409
ELEMENT_SET_NO = 999
REV_AT_EPOCH   = 373
BSTAR          = .10610492E-2
MEAN_MOTION_DOT = .62477E-3
MEAN_MOTION_DDOT = 0

CCSDS_OMM_VERS = 2.0
CREATION_DATE  = 
ORIGINATOR     = 

OBJECT_NAME    = STARLINK-36508
OBJECT_ID      = 2026-005G
CENTER_NAME    = EARTH
REF_FRAME      = TEME
TIME_SYSTEM    = UTC
MEAN_ELEMENT_THEORY = SGP/SGP4

EPOCH          = 2026-02-05T18:00:02.000160
MEAN_MOTION    = 15.40755535
ECCENTRICITY   = .0001364
INCLINATION    = 43.0002
RA_OF_ASC_NODE = 61.2027
ARG_OF_PERICENTER = 267.8888
MEAN_ANOMALY   = 283.6494

EPHEMERIS_TYPE = 0
CLASSIFICATION_TYPE = U
NORAD_CAT_ID   = 67410
ELEMENT_SET_NO = 999
REV_AT_EPOCH   = 505
BSTAR          = -.33383224E-2
MEAN_MOTION_DOT = -.137523E-2
MEAN_MOTION_DDOT = 0

CCSDS_OMM_VERS = 2.0
CREATION_DATE  = 
ORIGINATOR     = 

OBJECT_NAME    = STARLINK-36503
OBJECT_ID      = 2026-005H
CENTER_NAME    = EARTH
REF_FRAME      = TEME
TIME_SYSTEM    = UTC
MEAN_ELEMENT_THEORY = SGP/SGP4

EPOCH          = 2026-02-05T12:16:27.902784
MEAN_MOTION    = 15.50615520
ECCENTRICITY   = .00013711
INCLINATION    = 42.9999
RA_OF_ASC_NODE = 62.4470
ARG_OF_PERICENTER = 260.4653
MEAN_ANOMALY   = 99.6052

EPHEMERIS_TYPE = 0
CLASSIFICATION_TYPE = U
NORAD_CAT_ID   = 67411
ELEMENT_SET_NO = 999
REV_AT_EPOCH   = 374
BSTAR          = .16097073E-2
MEAN_MOTION_DOT = .95374E-3
MEAN_MOTION_DDOT = 0

CCSDS_OMM_VERS = 2.0
CREATION_DATE  = 
ORIGINATOR     = 

OBJECT_NAME    = STARLINK-36446
OBJECT_ID      = 2026-005J
CENTER_NAME    = EARTH
REF_FRAME      = TEME
TIME_SYSTEM    = UTC
MEAN_ELEMENT_THEORY = SGP/SGP4

EPOCH          = 2026-02-05T04:32:19.726944
MEAN_MOTION    = 15.49952014
ECCENTRICITY   = .0000465
INCLINATION    = 42.9999
RA_OF_ASC_NODE = 64.3297
ARG_OF_PERICENTER = 298.0126
MEAN_ANOMALY   = 62.0687

EPHEMERIS_TYPE = 0
CLASSIFICATION_TYPE = U
NORAD_CAT_ID   = 67412
ELEMENT_SET_NO = 999
REV_AT_EPOCH   = 369
BSTAR          = -.43537E-2
MEAN_MOTION_DOT = -.242506E-2
MEAN_MOTION_DDOT = 0

CCSDS_OMM_VERS = 2.0
CREATION_DATE  = 
ORIGINATOR     = 

OBJECT_NAME    = STARLINK-36442
OBJECT_ID      = 2026-005K
CENTER_NAME    = EARTH
REF_FRAME      = TEME
TIME_SYSTEM    = UTC
MEAN_ELEMENT_THEORY = SGP/SGP4

EPOCH          = 2026-02-05T12:15:28.704960
MEAN_MOTION    = 15.50624599
ECCENTRICITY   = .00011983
INCLINATION    = 43.0001
RA_OF_ASC_NODE = 62.4408
ARG_OF_PERICENTER = 266.8220
MEAN_ANOMALY   = 93.2503

EPHEMERIS_TYPE = 0
CLASSIFICATION_TYPE = U
NORAD_CAT_ID   = 67413
ELEMENT_SET_NO = 999
REV_AT_EPOCH   = 374
BSTAR          = .20222289E-2
MEAN_MOTION_DOT = .120328E-2
MEAN_MOTION_DDOT = 0

CCSDS_OMM_VERS = 2.0
CREATION_DATE  = 
ORIGINATOR     = 

OBJECT_NAME    = STARLINK-36506
OBJECT_ID      = 2026-005L
CENTER_NAME    = EARTH
REF_FRAME      = TEME
TIME_SYSTEM    = UTC
MEAN_ELEMENT_THEORY = SGP/SGP4

EPOCH          = 2026-02-05T16:00:01.999584
MEAN_MOTION    = 15.50684844
ECCENTRICITY   = .00015197
INCLINATION    = 43.0001
RA_OF_ASC_NODE = 61.5249
ARG_OF_PERICENTER = 273.5265
MEAN_ANOMALY   = 239.9338

EPHEMERIS_TYPE = 0
CLASSIFICATION_TYPE = U
NORAD_CAT_ID   = 67414
ELEMENT_SET_NO = 999
REV_AT_EPOCH   = 504
BSTAR          = -.36307747E-2
MEAN_MOTION_DOT = -.208556E-2
MEAN_MOTION_DDOT = 0

CCSDS_OMM_VERS = 2.0
CREATION_DATE  = 
ORIGINATOR     = 

OBJECT_NAME    = STARLINK-36468
OBJECT_ID      = 2026-005M
CENTER_NAME    = EARTH
REF_FRAME      = TEME
TIME_SYSTEM    = UTC
MEAN_ELEMENT_THEORY = SGP/SGP4

EPOCH          = 2026-02-05T12:14:29.409504
MEAN_MOTION    = 15.50620170
ECCENTRICITY   = .00014069
INCLINATION    = 42.9999
RA_OF_ASC_NODE = 62.4358
ARG_OF_PERICENTER = 258.6701
MEAN_ANOMALY   = 101.4001

EPHEMERIS_TYPE = 0
CLASSIFICATION_TYPE = U
NORAD_CAT_ID   = 67415
ELEMENT_SET_NO = 999
REV_AT_EPOCH   = 374
BSTAR          = .18444067E-2
MEAN_MOTION_DOT = .109548E-2
MEAN_MOTION_DDOT = 0

CCSDS_OMM_VERS = 2.0
CREATION_DATE  = 
ORIGINATOR     = 

OBJECT_NAME    = STARLINK-36487
OBJECT_ID      = 2026-005N
CENTER_NAME    = EARTH
REF_FRAME      = TEME
TIME_SYSTEM    = UTC
MEAN_ELEMENT_THEORY = SGP/SGP4

EPOCH          = 2026-02-05T18:00:02.000160
MEAN_MOTION    = 15.40674709
ECCENTRICITY   = .00014273
INCLINATION    = 43.0004
RA_OF_ASC_NODE = 61.1405
ARG_OF_PERICENTER = 274.8196
MEAN_ANOMALY   = 301.6047

EPHEMERIS_TYPE = 0
CLASSIFICATION_TYPE = U
NORAD_CAT_ID   = 67416
ELEMENT_SET_NO = 999
REV_AT_EPOCH   = 505
BSTAR          = .21106128E-3
MEAN_MOTION_DOT = .8516E-4
MEAN_MOTION_DDOT = 0

CCSDS_OMM_VERS = 2.0
CREATION_DATE  = 
ORIGINATOR     = 

OBJECT_NAME    = STARLINK-36374
OBJECT_ID      = 2026-005P
CENTER_NAME    = EARTH
REF_FRAME      = TEME
TIME_SYSTEM    = UTC
MEAN_ELEMENT_THEORY = SGP/SGP4

EPOCH          = 2026-02-05T12:13:30.111456
MEAN_MOTION    = 15.50612502
ECCENTRICITY   = .00014423
INCLINATION    = 42.9998
RA_OF_ASC_NODE = 62.4298
ARG_OF_PERICENTER = 253.0104
MEAN_ANOMALY   = 107.0598

EPHEMERIS_TYPE = 0
CLASSIFICATION_TYPE = U
NORAD_CAT_ID   = 67417
ELEMENT_SET_NO = 999
REV_AT_EPOCH   = 374
BSTAR          = .15733387E-2
MEAN_MOTION_DOT = .93176E-3
MEAN_MOTION_DDOT = 0

